[{"OBJECT_NAME":"STARLINK-5724","OBJECT_ID":"2023-061BF","EPOCH":"2026-03-18T19:51:17.071488","MEAN_MOTION":15.02534216,"ECCENTRICITY":0.0001217,"INCLINATION":43.0026,"RA_OF_ASC_NODE":122.2732,"ARG_OF_PERICENTER":270.4101,"MEAN_ANOMALY":89.6602,"EPHEMERIS_TYPE":0,"CLASSIFICATION_TYPE":"U","NORAD_CAT_ID":56427,"ELEMENT_SET_NO":999,"REV_AT_EPOCH":15842,"BSTAR":1.3828463e-5,"MEAN_MOTION_DOT":-1.7e-7,"MEAN_MOTION_DDOT":0},{"OBJECT_NAME":"STARLINK-6238","OBJECT_ID":"2023-061BG","EPOCH":"2026-03-18T20:24:39.531456","MEAN_MOTION":15.02575146,"ECCENTRICITY":0.000171,"INCLINATION":43.0033,"RA_OF_ASC_NODE":121.596,"ARG_OF_PERICENTER":276.7301,"MEAN_ANOMALY":83.3346,"EPHEMERIS_TYPE":0,"CLASSIFICATION_TYPE":"U","NORAD_CAT_ID":56428,"ELEMENT_SET_NO":999,"REV_AT_EPOCH":15843,"BSTAR":-0.00056728654,"MEAN_MOTION_DOT":-7.866e-5,"MEAN_MOTION_DDOT":0},{"OBJECT_NAME":"STARLINK-6264","OBJECT_ID":"2023-061BH","EPOCH":"2026-03-18T20:19:52.946976","MEAN_MOTION":15.02536592,"ECCENTRICITY":0.00012159,"INCLINATION":43.0036,"RA_OF_ASC_NODE":121.571,"ARG_OF_PERICENTER":272.6789,"MEAN_ANOMALY":87.3915,"EPHEMERIS_TYPE":0,"CLASSIFICATION_TYPE":"U","NORAD_CAT_ID":56429,"ELEMENT_SET_NO":999,"REV_AT_EPOCH":15843,"BSTAR":2.9828771e-5,"MEAN_MOTION_DOT":1.99e-6,"MEAN_MOTION_DDOT":0},{"OBJECT_NAME":"STARLINK-5990","OBJECT_ID":"2023-064A","EPOCH":"2026-03-18T00:00:02.000160","MEAN_MOTION":14.98300702,"ECCENTRICITY":0.00032471,"INCLINATION":70.0005,"RA_OF_ASC_NODE":123.5784,"ARG_OF_PERICENTER":269.4359,"MEAN_ANOMALY":287.5618,"EPHEMERIS_TYPE":0,"CLASSIFICATION_TYPE":"U","NORAD_CAT_ID":56448,"ELEMENT_SET_NO":999,"REV_AT_EPOCH":572,"BSTAR":0.0053352089,"MEAN_MOTION_DOT":0.00064104,"MEAN_MOTION_DDOT":0},{"OBJECT_NAME":"STARLINK-5993","OBJECT_ID":"2023-064B","EPOCH":"2026-03-19T06:03:49.300416","MEAN_MOTION":14.98328223,"ECCENTRICITY":0.00029643,"INCLINATION":69.9988,"RA_OF_ASC_NODE":120.5419,"ARG_OF_PERICENTER":267.3443,"MEAN_ANOMALY":92.7377,"EPHEMERIS_TYPE":0,"CLASSIFICATION_TYPE":"U","NORAD_CAT_ID":56449,"ELEMENT_SET_NO":999,"REV_AT_EPOCH":15667,"BSTAR":-1.3681658e-5,"MEAN_MOTION_DOT":-2.56e-6,"MEAN_MOTION_DDOT":0},{"OBJECT_NAME":"STARLINK-5970","OBJECT_ID":"2023-064C","EPOCH":"2026-03-19T07:04:08.874624","MEAN_MOTION":14.98334861,"ECCENTRICITY":0.00031646,"INCLINATION":69.9988,"RA_OF_ASC_NODE":120.2889,"ARG_OF_PERICENTER":274.7369,"MEAN_ANOMALY":85.3428,"EPHEMERIS_TYPE":0,"CLASSIFICATION_TYPE":"U","NORAD_CAT_ID":56450,"ELEMENT_SET_NO":999,"REV_AT_EPOCH":15668,"BSTAR":4.7067139e-5,"MEAN_MOTION_DOT":4.69e-6,"MEAN_MOTION_DDOT":0},{"OBJECT_NAME":"STARLINK-5985","OBJECT_ID":"2023-064D","EPOCH":"2026-03-19T05:57:48.245184","MEAN_MOTION":14.98331902,"ECCENTRICITY":0.0003402,"INCLINATION":69.999,"RA_OF_ASC_NODE":120.5288,"ARG_OF_PERICENTER":265.8982,"MEAN_ANOMALY":94.1788,"EPHEMERIS_TYPE":0,"CLASSIFICATION_TYPE":"U","NORAD_CAT_ID":56451,"ELEMENT_SET_NO":999,"REV_AT_EPOCH":15667,"BSTAR":6.2460035e-5,"MEAN_MOTION_DOT":6.52e-6,"MEAN_MOTION_DDOT":0},{"OBJECT_NAME":"STARLINK-5986","OBJECT_ID":"2023-064E","EPOCH":"2026-03-19T07:27:56.261376","MEAN_MOTION":14.9832598,"ECCENTRICITY":0.00032,"INCLINATION":69.999,"RA_OF_ASC_NODE":120.3459,"ARG_OF_PERICENTER":268.537,"MEAN_ANOMALY":91.5423,"EPHEMERIS_TYPE":0,"CLASSIFICATION_TYPE":"U","NORAD_CAT_ID":56452,"ELEMENT_SET_NO":999,"REV_AT_EPOCH":15668,"BSTAR":-2.9356103e-5,"MEAN_MOTION_DOT":-4.43e-6,"MEAN_MOTION_DDOT":0},{"OBJECT_NAME":"STARLINK-5935","OBJECT_ID":"2023-064F","EPOCH":"2026-03-19T07:21:55.080864","MEAN_MOTION":14.98333142,"ECCENTRICITY":0.00031837,"INCLINATION":69.999,"RA_OF_ASC_NODE":120.3317,"ARG_OF_PERICENTER":268.5041,"MEAN_ANOMALY":91.5753,"EPHEMERIS_TYPE":0,"CLASSIFICATION_TYPE":"U","NORAD_CAT_ID":56453,"ELEMENT_SET_NO":999,"REV_AT_EPOCH":15668,"BSTAR":3.244163e-6,"MEAN_MOTION_DOT":-5.4e-7,"MEAN_MOTION_DDOT":0},{"OBJECT_NAME":"STARLINK-5959","OBJECT_ID":"2023-064G","EPOCH":"2026-03-19T06:51:51.371136","MEAN_MOTION":14.98350513,"ECCENTRICITY":0.00028789,"INCLINATION":69.9991,"RA_OF_ASC_NODE":120.2549,"ARG_OF_PERICENTER":264.1917,"MEAN_ANOMALY":95.8914,"EPHEMERIS_TYPE":0,"CLASSIFICATION_TYPE":"U","NORAD_CAT_ID":56454,"ELEMENT_SET_NO":999,"REV_AT_EPOCH":15668,"BSTAR":4.5139246e-5,"MEAN_MOTION_DOT":4.46e-6,"MEAN_MOTION_DDOT":0},{"OBJECT_NAME":"STARLINK-5987","OBJECT_ID":"2023-064H","EPOCH":"2026-03-19T13:10:25.080096","MEAN_MOTION":14.98306151,"ECCENTRICITY":0.0003033,"INCLINATION":69.9986,"RA_OF_ASC_NODE":119.568,"ARG_OF_PERICENTER":261.3479,"MEAN_ANOMALY":98.7336,"EPHEMERIS_TYPE":0,"CLASSIFICATION_TYPE":"U","NORAD_CAT_ID":56455,"ELEMENT_SET_NO":999,"REV_AT_EPOCH":15672,"BSTAR":0.00054648,"MEAN_MOTION_DOT":6.429e-5,"MEAN_MOTION_DDOT":0},{"OBJECT_NAME":"STARLINK-5995","OBJECT_ID":"2023-064J","EPOCH":"2026-03-19T13:28:25.121568","MEAN_MOTION":14.98320035,"ECCENTRICITY":0.0003215,"INCLINATION":69.999,"RA_OF_ASC_NODE":119.6142,"ARG_OF_PERICENTER":266.4034,"MEAN_ANOMALY":93.6758,"EPHEMERIS_TYPE":0,"CLASSIFICATION_TYPE":"U","NORAD_CAT_ID":56456,"ELEMENT_SET_NO":999,"REV_AT_EPOCH":15672,"BSTAR":-3.372e-5,"MEAN_MOTION_DOT":-4.95e-6,"MEAN_MOTION_DDOT":0},{"OBJECT_NAME":"STARLINK-5994","OBJECT_ID":"2023-064K","EPOCH":"2026-03-19T06:57:52.371936","MEAN_MOTION":14.98331903,"ECCENTRICITY":0.00032054,"INCLINATION":69.9988,"RA_OF_ASC_NODE":120.2715,"ARG_OF_PERICENTER":271.8138,"MEAN_ANOMALY":88.2654,"EPHEMERIS_TYPE":0,"CLASSIFICATION_TYPE":"U","NORAD_CAT_ID":56457,"ELEMENT_SET_NO":999,"REV_AT_EPOCH":15668,"BSTAR":3.045548e-5,"MEAN_MOTION_DOT":2.7e-6,"MEAN_MOTION_DDOT":0},{"OBJECT_NAME":"STARLINK-6050","OBJECT_ID":"2023-064L","EPOCH":"2026-03-19T16:00:01.999584","MEAN_MOTION":14.98347304,"ECCENTRICITY":0.0003676,"INCLINATION":69.9996,"RA_OF_ASC_NODE":119.3724,"ARG_OF_PERICENTER":272.9086,"MEAN_ANOMALY":272.3866,"EPHEMERIS_TYPE":0,"CLASSIFICATION_TYPE":"U","NORAD_CAT_ID":56458,"ELEMENT_SET_NO":999,"REV_AT_EPOCH":577,"BSTAR":-0.0023579,"MEAN_MOTION_DOT":-0.00028129,"MEAN_MOTION_DDOT":0},{"OBJECT_NAME":"STARLINK-6048","OBJECT_ID":"2023-064M","EPOCH":"2026-03-19T20:00:01.999008","MEAN_MOTION":14.98330405,"ECCENTRICITY":0.0003256,"INCLINATION":69.9995,"RA_OF_ASC_NODE":118.751,"ARG_OF_PERICENTER":270.4777,"MEAN_ANOMALY":272.7544,"EPHEMERIS_TYPE":0,"CLASSIFICATION_TYPE":"U","NORAD_CAT_ID":56459,"ELEMENT_SET_NO":999,"REV_AT_EPOCH":574,"BSTAR":-0.0011243,"MEAN_MOTION_DOT":-0.00013482,"MEAN_MOTION_DDOT":0},{"OBJECT_NAME":"STARLINK-6047","OBJECT_ID":"2023-064N","EPOCH":"2026-03-19T13:04:23.159136","MEAN_MOTION":14.98317866,"ECCENTRICITY":0.000323,"INCLINATION":69.9987,"RA_OF_ASC_NODE":119.553,"ARG_OF_PERICENTER":280.1891,"MEAN_ANOMALY":79.8903,"EPHEMERIS_TYPE":0,"CLASSIFICATION_TYPE":"U","NORAD_CAT_ID":56460,"ELEMENT_SET_NO":999,"REV_AT_EPOCH":15672,"BSTAR":0.00021271,"MEAN_MOTION_DOT":2.445e-5,"MEAN_MOTION_DDOT":0}]
