STARLINK-5724           
1 56427U 23061BF  26077.82728092 -.00000017  00000+0  13828-4 0  9990
2 56427  43.0026 122.2732 0001217 270.4101  89.6602 15.02534216158426
STARLINK-6238           
1 56428U 23061BG  26077.85045754 -.00007866  00000+0 -56729-3 0  9997
2 56428  43.0033 121.5960 0001710 276.7301  83.3346 15.02575146158433
STARLINK-6264           
1 56429U 23061BH  26077.84714059  .00000199  00000+0  29829-4 0  9990
2 56429  43.0036 121.5710 0001215 272.6789  87.3915 15.02536592158433
STARLINK-5990           
1 56448U 23064A   26077.00002315  .00064104  00000+0  53352-2 0  9999
2 56448  70.0005 123.5784 0003247 269.4359 287.5618 14.98300702  5720
STARLINK-5993           
1 56449U 23064B   26078.25265394 -.00000256  00000+0 -13682-4 0  9990
2 56449  69.9988 120.5419 0002964 267.3443  92.7377 14.98328223156673
STARLINK-5970           
1 56450U 23064C   26078.29454716  .00000469  00000+0  47067-4 0  9992
2 56450  69.9988 120.2889 0003164 274.7369  85.3428 14.98334861156686
STARLINK-5985           
1 56451U 23064D   26078.24847506  .00000652  00000+0  62460-4 0  9999
2 56451  69.9990 120.5288 0003402 265.8982  94.1788 14.98331902156672
STARLINK-5986           
1 56452U 23064E   26078.31106784 -.00000443  00000+0 -29356-4 0  9991
2 56452  69.9990 120.3459 0003200 268.5370  91.5423 14.98325980156685
STARLINK-5935           
1 56453U 23064F   26078.30688751 -.00000054  00000+0  32442-5 0  9998
2 56453  69.9990 120.3317 0003183 268.5041  91.5753 14.98333142156689
STARLINK-5959           
1 56454U 23064G   26078.28601124  .00000446  00000+0  45139-4 0  9995
2 56454  69.9991 120.2549 0002878 264.1917  95.8914 14.98350513156688
STARLINK-5987           
1 56455U 23064H   26078.54890139  .00006429  00000+0  54648-3 0  9992
2 56455  69.9986 119.5680 0003033 261.3479  98.7336 14.98306151156720
STARLINK-5995           
1 56456U 23064J   26078.56140187 -.00000495  00000+0 -33720-4 0  9994
2 56456  69.9990 119.6142 0003215 266.4034  93.6758 14.98320035156724
STARLINK-5994           
1 56457U 23064K   26078.29018949  .00000270  00000+0  30455-4 0  9996
2 56457  69.9988 120.2715 0003205 271.8138  88.2654 14.98331903156686
STARLINK-6050           
1 56458U 23064L   26078.66668981 -.00028129  00000+0 -23579-2 0  9997
2 56458  69.9996 119.3724 0003676 272.9086 272.3866 14.98347304  5777
STARLINK-6048           
1 56459U 23064M   26078.83335647 -.00013482  00000+0 -11243-2 0  9998
2 56459  69.9995 118.7510 0003256 270.4777 272.7544 14.98330405  5745
STARLINK-6047           
1 56460U 23064N   26078.54471249  .00002445  00000+0  21271-3 0  9995
2 56460  69.9987 119.5530 0003230 280.1891  79.8903 14.98317866156722
